start=new Date('2022-02-06T00:00:00.000Z').valueOf();
sats=[{"OBJECT_TYPE":"PAYLOAD","OBJECT_ID":"2020-038AW","DECAY_DATE":null,"ELEMENT_SET_NO":"999","MEAN_MOTION":"15.06402427","PERIAPSIS":"546.204","MEAN_ELEMENT_THEORY":"SGP4","BSTAR":"-0.00005064800000","CLASSIFICATION_TYPE":"U","GP_ID":"195374657","EPOCH":"2022-02-05T18:01:41.147616","MEAN_MOTION_DOT":"-0.00001036","LAUNCH_DATE":"2020-06-13","INCLINATION":"53.0550","FILE":"3292797","NORAD_CAT_ID":"45774","RA_OF_ASC_NODE":"58.6738","MEAN_ANOMALY":"298.7333","MEAN_MOTION_DDOT":"0.0000000000000","REF_FRAME":"TEME","TIME_SYSTEM":"UTC","RCS_SIZE":"LARGE","TLE_LINE1":"1 45774U 20038AW  22036.75117069 -.00001036  00000-0 -50648-4 0  9998","COUNTRY_CODE":"US","REV_AT_EPOCH":"9285","OBJECT_NAME":"STARLINK-1485","APOAPSIS":"548.208","SEMIMAJOR_AXIS":"6925.341","ARG_OF_PERICENTER":"61.3801","PERIOD":"95.592","EPHEMERIS_TYPE":"0","SITE":"AFETR","CENTER_NAME":"EARTH","TLE_LINE2":"2 45774  53.0550  58.6738 0001447  61.3801 298.7333 15.06402427 92859","ECCENTRICITY":"0.00014470"},{"BSTAR":"-0.00005614000000","MEAN_ELEMENT_THEORY":"SGP4","CLASSIFICATION_TYPE":"U","EPOCH":"2022-02-05T08:33:44.240256","GP_ID":"195366641","MEAN_MOTION_DOT":"-0.00001118","LAUNCH_DATE":"2020-06-13","FILE":"3292709","INCLINATION":"53.0552","NORAD_CAT_ID":"45775","DECAY_DATE":null,"OBJECT_TYPE":"PAYLOAD","OBJECT_ID":"2020-038AX","ELEMENT_SET_NO":"999","MEAN_MOTION":"15.06415073","PERIAPSIS":"546.081","OBJECT_NAME":"STARLINK-1488","SEMIMAJOR_AXIS":"6925.302","ARG_OF_PERICENTER":"70.6413","APOAPSIS":"548.253","PERIOD":"95.591","EPHEMERIS_TYPE":"0","SITE":"AFETR","CENTER_NAME":"EARTH","ECCENTRICITY":"0.00015680","TLE_LINE2":"2 45775  53.0552  60.4527 0001568  70.6413 289.4746 15.06415073 91681","MEAN_ANOMALY":"289.4746","RA_OF_ASC_NODE":"60.4527","MEAN_MOTION_DDOT":"0.0000000000000","REF_FRAME":"TEME","TIME_SYSTEM":"UTC","RCS_SIZE":"LARGE","TLE_LINE1":"1 45775U 20038AX  22036.35676204 -.00001118  00000-0 -56140-4 0  9990","COUNTRY_CODE":"US","REV_AT_EPOCH":"9168"},{"MEAN_MOTION_DDOT":"0.0000000000000","REF_FRAME":"TEME","RA_OF_ASC_NODE":"59.8148","MEAN_ANOMALY":"298.1564","TIME_SYSTEM":"UTC","TLE_LINE1":"1 45776U 20038AY  22036.49683039 -.00002925  00000-0 -17760-3 0  9991","RCS_SIZE":"LARGE","REV_AT_EPOCH":"9170","COUNTRY_CODE":"US","OBJECT_NAME":"STARLINK-1489","APOAPSIS":"548.284","ARG_OF_PERICENTER":"61.9578","SEMIMAJOR_AXIS":"6925.367","CENTER_NAME":"EARTH","SITE":"AFETR","PERIOD":"95.593","EPHEMERIS_TYPE":"0","TLE_LINE2":"2 45776  53.0531  59.8148 0001519  61.9578 298.1564 15.06393840 91706","ECCENTRICITY":"0.00015190","OBJECT_ID":"2020-038AY","OBJECT_TYPE":"PAYLOAD","DECAY_DATE":null,"ELEMENT_SET_NO":"999","PERIAPSIS":"546.180","MEAN_MOTION":"15.06393840","CLASSIFICATION_TYPE":"U","MEAN_ELEMENT_THEORY":"SGP4","BSTAR":"-0.00017760000000","GP_ID":"195365894","EPOCH":"2022-02-05T11:55:26.145696","LAUNCH_DATE":"2020-06-13","MEAN_MOTION_DOT":"-0.00002925","NORAD_CAT_ID":"45776","INCLINATION":"53.0531","FILE":"3292709"},{"CLASSIFICATION_TYPE":"U","BSTAR":"-0.00005000000000","MEAN_ELEMENT_THEORY":"SGP4","EPOCH":"2022-02-05T18:12:18.295776","GP_ID":"195374669","LAUNCH_DATE":"2020-06-13","MEAN_MOTION_DOT":"-0.00001026","NORAD_CAT_ID":"45777","FILE":"3292798","INCLINATION":"53.0553","DECAY_DATE":null,"OBJECT_ID":"2020-038AZ","OBJECT_TYPE":"PAYLOAD","ELEMENT_SET_NO":"999","PERIAPSIS":"546.042","MEAN_MOTION":"15.06384295","OBJECT_NAME":"STARLINK-1490","ARG_OF_PERICENTER":"59.1445","SEMIMAJOR_AXIS":"6925.397","APOAPSIS":"548.481","SITE":"AFETR","CENTER_NAME":"EARTH","PERIOD":"95.593","EPHEMERIS_TYPE":"0","ECCENTRICITY":"0.00017610","TLE_LINE2":"2 45777  53.0553  58.6548 0001761  59.1445 300.9717 15.06384295 92867","REF_FRAME":"TEME","MEAN_MOTION_DDOT":"0.0000000000000","MEAN_ANOMALY":"300.9717","RA_OF_ASC_NODE":"58.6548","TIME_SYSTEM":"UTC","TLE_LINE1":"1 45777U 20038AZ  22036.75854509 -.00001026  00000-0 -50000-4 0  9999","RCS_SIZE":"LARGE","REV_AT_EPOCH":"9286","COUNTRY_CODE":"US"},{"ECCENTRICITY":"0.00015140","TLE_LINE2":"2 45778  53.0545  59.9208 0001514  69.3941 290.7211 15.06391420 91688","EPHEMERIS_TYPE":"0","PERIOD":"95.593","CENTER_NAME":"EARTH","SITE":"AFETR","SEMIMAJOR_AXIS":"6925.375","ARG_OF_PERICENTER":"69.3941","APOAPSIS":"548.288","OBJECT_NAME":"STARLINK-1491","COUNTRY_CODE":"US","REV_AT_EPOCH":"9168","RCS_SIZE":"LARGE","TLE_LINE1":"1 45778U 20038BA  22036.47471990 -.00001145  00000-0 -58025-4 0  9995","TIME_SYSTEM":"UTC","MEAN_ANOMALY":"290.7211","RA_OF_ASC_NODE":"59.9208","MEAN_MOTION_DDOT":"0.0000000000000","REF_FRAME":"TEME","FILE":"3292709","INCLINATION":"53.0545","NORAD_CAT_ID":"45778","MEAN_MOTION_DOT":"-0.00001145","LAUNCH_DATE":"2020-06-13","EPOCH":"2022-02-05T11:23:35.799360","GP_ID":"195366896","BSTAR":"-0.00005802500000","MEAN_ELEMENT_THEORY":"SGP4","CLASSIFICATION_TYPE":"U","MEAN_MOTION":"15.06391420","PERIAPSIS":"546.191","ELEMENT_SET_NO":"999","DECAY_DATE":null,"OBJECT_ID":"2020-038BA","OBJECT_TYPE":"PAYLOAD"},{"TLE_LINE2":"2 45779  53.0521  59.9366 0001576  59.1552 300.9592 15.06413391 91689","ECCENTRICITY":"0.00015760","CENTER_NAME":"EARTH","SITE":"AFETR","EPHEMERIS_TYPE":"0","PERIOD":"95.591","APOAPSIS":"548.264","SEMIMAJOR_AXIS":"6925.308","ARG_OF_PERICENTER":"59.1552","OBJECT_NAME":"STARLINK-1492","REV_AT_EPOCH":"9168","COUNTRY_CODE":"US","TLE_LINE1":"1 45779U 20038BB  22036.47102801  .00001888  00000-0  14553-3 0  9997","RCS_SIZE":"LARGE","TIME_SYSTEM":"UTC","MEAN_MOTION_DDOT":"0.0000000000000","REF_FRAME":"TEME","RA_OF_ASC_NODE":"59.9366","MEAN_ANOMALY":"300.9592","NORAD_CAT_ID":"45779","FILE":"3292709","INCLINATION":"53.0521","LAUNCH_DATE":"2020-06-13","MEAN_MOTION_DOT":"0.00001888","GP_ID":"195367141","EPOCH":"2022-02-05T11:18:16.820064","CLASSIFICATION_TYPE":"U","MEAN_ELEMENT_THEORY":"SGP4","BSTAR":"0.00014553000000","PERIAPSIS":"546.081","MEAN_MOTION":"15.06413391","ELEMENT_SET_NO":"999","OBJECT_TYPE":"PAYLOAD","OBJECT_ID":"2020-038BB","DECAY_DATE":null},{"MEAN_MOTION_DOT":"-0.00001215","LAUNCH_DATE":"2020-06-13","FILE":"3292798","INCLINATION":"53.0546","NORAD_CAT_ID":"45780","MEAN_ELEMENT_THEORY":"SGP4","BSTAR":"-0.00006270000000","CLASSIFICATION_TYPE":"U","GP_ID":"195374670","EPOCH":"2022-02-05T17:56:21.662880","ELEMENT_SET_NO":"999","MEAN_MOTION":"15.06393561","PERIAPSIS":"546.077","OBJECT_TYPE":"PAYLOAD","OBJECT_ID":"2020-038BC","DECAY_DATE":null,"PERIOD":"95.593","EPHEMERIS_TYPE":"0","CENTER_NAME":"EARTH","SITE":"AFETR","TLE_LINE2":"2 45780  53.0546  58.7070 0001670  69.2817 290.8351 15.06393561 92652","ECCENTRICITY":"0.00016700","OBJECT_NAME":"STARLINK-1496","APOAPSIS":"548.390","SEMIMAJOR_AXIS":"6925.368","ARG_OF_PERICENTER":"69.2817","RCS_SIZE":"LARGE","TLE_LINE1":"1 45780U 20038BC  22036.74747295 -.00001215  00000-0 -62700-4 0  9995","COUNTRY_CODE":"US","REV_AT_EPOCH":"9265","RA_OF_ASC_NODE":"58.7070","MEAN_ANOMALY":"290.8351","MEAN_MOTION_DDOT":"0.0000000000000","REF_FRAME":"TEME","TIME_SYSTEM":"UTC"},{"COUNTRY_CODE":"US","REV_AT_EPOCH":"9266","RCS_SIZE":"LARGE","TLE_LINE1":"1 45781U 20038BD  22036.77329032  .00001649  00000-0  12958-3 0  9992","TIME_SYSTEM":"UTC","MEAN_ANOMALY":"294.7038","RA_OF_ASC_NODE":"58.5875","MEAN_MOTION_DDOT":"0.0000000000000","REF_FRAME":"TEME","ECCENTRICITY":"0.00018290","TLE_LINE2":"2 45781  53.0537  58.5875 0001829  65.4142 294.7038 15.06401502 92660","EPHEMERIS_TYPE":"0","PERIOD":"95.592","CENTER_NAME":"EARTH","SITE":"AFETR","SEMIMAJOR_AXIS":"6925.344","ARG_OF_PERICENTER":"65.4142","APOAPSIS":"548.476","OBJECT_NAME":"STARLINK-1497","MEAN_MOTION":"15.06401502","PERIAPSIS":"545.942","ELEMENT_SET_NO":"999","DECAY_DATE":null,"OBJECT_ID":"2020-038BD","OBJECT_TYPE":"PAYLOAD","FILE":"3292822","INCLINATION":"53.0537","NORAD_CAT_ID":"45781","MEAN_MOTION_DOT":"0.00001649","LAUNCH_DATE":"2020-06-13","EPOCH":"2022-02-05T18:33:32.283648","GP_ID":"195374183","BSTAR":"0.00012958000000","MEAN_ELEMENT_THEORY":"SGP4","CLASSIFICATION_TYPE":"U"},{"SEMIMAJOR_AXIS":"6925.373","ARG_OF_PERICENTER":"60.6489","APOAPSIS":"548.311","OBJECT_NAME":"STARLINK-1498","ECCENTRICITY":"0.00015490","TLE_LINE2":"2 45782  53.0546  60.1086 0001549  60.6489 299.4655 15.06391956 91694","EPHEMERIS_TYPE":"0","PERIOD":"95.593","CENTER_NAME":"EARTH","SITE":"AFETR","TIME_SYSTEM":"UTC","MEAN_ANOMALY":"299.4655","RA_OF_ASC_NODE":"60.1086","MEAN_MOTION_DDOT":"0.0000000000000","REF_FRAME":"TEME","COUNTRY_CODE":"US","REV_AT_EPOCH":"9169","RCS_SIZE":"LARGE","TLE_LINE1":"1 45782U 20038BE  22036.43417245 -.00002440  00000-0 -14498-3 0  9993","EPOCH":"2022-02-05T10:25:12.499680","GP_ID":"195366397","BSTAR":"-0.00014498000000","MEAN_ELEMENT_THEORY":"SGP4","CLASSIFICATION_TYPE":"U","FILE":"3292709","INCLINATION":"53.0546","NORAD_CAT_ID":"45782","MEAN_MOTION_DOT":"-0.00002440","LAUNCH_DATE":"2020-06-13","DECAY_DATE":null,"OBJECT_ID":"2020-038BE","OBJECT_TYPE":"PAYLOAD","MEAN_MOTION":"15.06391956","PERIAPSIS":"546.165","ELEMENT_SET_NO":"999"},{"MEAN_MOTION":"15.06393816","PERIAPSIS":"546.197","ELEMENT_SET_NO":"999","OBJECT_TYPE":"PAYLOAD","OBJECT_ID":"2020-038BF","DECAY_DATE":null,"FILE":"3292709","INCLINATION":"53.0565","NORAD_CAT_ID":"45783","MEAN_MOTION_DOT":"-0.00001269","LAUNCH_DATE":"2020-06-13","GP_ID":"195366642","EPOCH":"2022-02-05T12:06:03.687840","MEAN_ELEMENT_THEORY":"SGP4","BSTAR":"-0.00006631900000","CLASSIFICATION_TYPE":"U","COUNTRY_CODE":"US","REV_AT_EPOCH":"9170","RCS_SIZE":"LARGE","TLE_LINE1":"1 45783U 20038BF  22036.50420935 -.00001269  00000-0 -66319-4 0  9990","TIME_SYSTEM":"UTC","RA_OF_ASC_NODE":"59.7793","MEAN_ANOMALY":"294.8658","MEAN_MOTION_DDOT":"0.0000000000000","REF_FRAME":"TEME","TLE_LINE2":"2 45783  53.0565  59.7793 0001495  65.2487 294.8658 15.06393816 91705","ECCENTRICITY":"0.00014950","EPHEMERIS_TYPE":"0","PERIOD":"95.593","SITE":"AFETR","CENTER_NAME":"EARTH","APOAPSIS":"548.268","SEMIMAJOR_AXIS":"6925.368","ARG_OF_PERICENTER":"65.2487","OBJECT_NAME":"STARLINK-1505"}];
